{
  "norad_id": 53779,
  "name": "STARLINK-4706",
  "history": [
    {
      "epoch": "2026-03-28T18:15:52.102944Z",
      "apogee_km": 540.6366863791136,
      "perigee_km": 538.8396991190439,
      "latitude_deg": -5.3038510663861406e-05,
      "longitude_deg": 88.4780338382687,
      "height_km": 540.6928144411796,
      "semi_major_axis_km": 6917.875192749078,
      "eccentricity": 0.00012988,
      "inclination_deg": 53.2173,
      "raan_deg": 188.622,
      "arg_perigee_deg": 93.7542,
      "mean_anomaly_deg": 266.3598,
      "mean_motion_rev_day": 15.088417
    }
  ]
}